NORAD_CAT_ID,OBJECT_NAME,OBJECT_TYPE,EPOCH,MEAN_MOTION,ECCENTRICITY,INCLINATION,RA_OF_ASC_NODE,ARG_OF_PERICENTER,MEAN_ANOMALY,BSTAR,MEAN_MOTION_DOT,MEAN_MOTION_DDOT,TLE_LINE0,TLE_LINE1,TLE_LINE2,SEMIMAJOR_AXIS,PERIOD,APOGEE,PERIGEE,DECAYED
53574.0,STARLINK-4559,PAYLOAD,2024-02-17 08:35:02,15.08824387,0.0001419,53.2175,186.6911,88.6255,271.49,-9.1361e-05,-1.741e-05,0.0,0 STARLINK-4559,1 53574U 22101AZ  24048.35766696 -.00001741  00000-0 -91361-4 0  9995,2 53574  53.2175 186.6911 0001419  88.6255 271.4900 15.08824387 83022,6917.928,95.439,540.775,538.811,0.0
53574.0,STARLINK-4559,PAYLOAD,2024-02-17 14:56:34,15.08832959,0.0001558,53.2169,185.5007,93.1454,266.9717,5.1607e-06,-2.06e-06,0.0,0 STARLINK-4559,1 53574U 22101AZ  24048.62262449 -.00000206  00000-0  51607-5 0  9996,2 53574  53.2169 185.5007 0001558  93.1454 266.9717 15.08832959 83068,6917.902,95.438,540.845,538.689,0.0
53574.0,STARLINK-4559,PAYLOAD,2024-02-17 16:31:58,15.08832637,0.0001709,53.2167,185.2047,71.5906,288.5272,-1.5191e-05,-5.3e-06,0.0,0 STARLINK-4559,1 53574U 22101AZ  24048.68886619 -.00000530  00000-0 -15191-4 0  9991,2 53574  53.2167 185.2047 0001709  71.5906 288.5272 15.08832637 83077,6917.903,95.438,540.95,538.586,0.0
53574.0,STARLINK-4559,PAYLOAD,2024-02-18 02:04:16,15.08840013,0.0001624,53.2171,183.421,83.862,276.2557,0.00011554,1.551e-05,0.0,0 STARLINK-4559,1 53574U 22101AZ  24049.08630360  .00001551  00000-0  11554-3 0  9996,2 53574  53.2171 183.4210 0001624  83.8620 276.2557 15.08840013 83133,6917.88,95.438,540.869,538.622,0.0
53574.0,STARLINK-4559,PAYLOAD,2024-02-18 14:47:21,15.08851315,0.0001317,53.2148,181.0416,88.0981,272.0162,0.00049786,7.647e-05,0.0,0 STARLINK-4559,1 53574U 22101AZ  24049.61621976  .00007647  00000-0  49786-3 0  9998,2 53574  53.2148 181.0416 0001317  88.0981 272.0162 15.08851315 83217,6917.846,95.437,540.622,538.8,0.0
53574.0,STARLINK-4559,PAYLOAD,2024-02-18 17:58:07,15.0886462,0.0001403,53.2151,180.446,89.3208,270.7945,0.0010847,0.00017029,0.0,0 STARLINK-4559,1 53574U 22101AZ  24049.74869826  .00017029  00000-0  10847-2 0  9990,2 53574  53.2151 180.4460 0001403  89.3208 270.7945 15.08864620 83234,6917.805,95.436,540.641,538.7,0.0
53574.0,STARLINK-4559,PAYLOAD,2024-02-19 01:55:03,15.08845469,0.0001675,53.2161,178.959,76.557,283.5609,0.00023426,3.443e-05,0.0,0 STARLINK-4559,1 53574U 22101AZ  24050.07990196  .00003443  00000-0  23426-3 0  9996,2 53574  53.2161 178.9590 0001675  76.5570 283.5609 15.08845469 83286,6917.864,95.437,540.887,538.57,0.0
53574.0,STARLINK-4559,PAYLOAD,2024-02-19 14:38:08,15.088424,0.0001652,53.2156,176.5799,82.1007,278.0172,0.00030304,4.538e-05,0.0,0 STARLINK-4559,1 53574U 22101AZ  24050.60982382  .00004538  00000-0  30304-3 0  9992,2 53574  53.2156 176.5799 0001652  82.1007 278.0172 15.08842400 83363,6917.873,95.437,540.881,538.595,0.0
53574.0,STARLINK-4559,PAYLOAD,2024-02-20 01:45:50,15.08838812,0.000163,53.2148,174.4997,74.4247,285.6924,0.00042349,6.458e-05,0.0,0 STARLINK-4559,1 53574U 22101AZ  24051.07350645  .00006458  00000-0  42349-3 0  9990,2 53574  53.2148 174.4997 0001630  74.4247 285.6924 15.08838812 83436,6917.884,95.438,540.877,538.621,0.0
53574.0,STARLINK-4559,PAYLOAD,2024-02-20 14:28:55,15.08850321,0.000157,53.2163,172.1203,77.3377,282.779,0.00056438,8.708e-05,0.0,0 STARLINK-4559,1 53574U 22101AZ  24051.60342383  .00008708  00000-0  56438-3 0  9993,2 53574  53.2163 172.1203 0001570  77.3377 282.7790 15.08850321 83514,6917.849,95.437,540.8,538.628,0.0
53574.0,STARLINK-4559,PAYLOAD,2024-02-21 11:08:56,15.08842424,0.0001595,53.217,168.2547,77.8414,282.2756,0.00010361,1.361e-05,0.0,0 STARLINK-4559,1 53574U 22101AZ  24052.46454423  .00001361  00000-0  10361-3 0  9990,2 53574  53.2170 168.2547 0001595  77.8414 282.2756 15.08842424 83649,6917.873,95.437,540.841,538.635,0.0
53574.0,STARLINK-4559,PAYLOAD,2024-02-21 14:19:42,15.08843401,0.0001518,53.2169,167.6598,79.5547,280.5616,0.00019156,2.762e-05,0.0,0 STARLINK-4559,1 53574U 22101AZ  24052.59702415  .00002762  00000-0  19156-3 0  9998,2 53574  53.2169 167.6598 0001518  79.5547 280.5616 15.08843401 83661,6917.87,95.437,540.785,538.685,0.0
53574.0,STARLINK-4559,PAYLOAD,2024-02-22 14:10:29,15.08844,0.0001385,53.2177,163.2017,82.0082,278.1068,0.00016202,2.292e-05,0.0,0 STARLINK-4559,1 53574U 22101AZ  24053.59062346  .00002292  00000-0  16202-3 0  9998,2 53574  53.2177 163.2017 0001385  82.0082 278.1068 15.08844000 83810,6917.868,95.437,540.691,538.775,0.0
53574.0,STARLINK-4559,PAYLOAD,2024-02-23 12:25:53,15.08840097,0.0001768,53.2195,159.043,103.0505,257.0684,8.9551e-05,1.137e-05,0.0,0 STARLINK-4559,1 53574U 22101AZ  24054.51798547  .00001137  00000-0  89551-4 0  9995,2 53574  53.2195 159.0430 0001768 103.0505 257.0684 15.08840097 83958,6917.88,95.438,540.968,538.522,0.0
53574.0,STARLINK-4559,PAYLOAD,2024-02-23 14:01:16,15.08845328,0.0001556,53.2175,158.7445,91.3071,268.81,0.00012054,1.631e-05,0.0,0 STARLINK-4559,1 53574U 22101AZ  24054.58422346  .00001631  00000-0  12054-3 0  9995,2 53574  53.2175 158.7445 0001556  91.3071 268.8100 15.08845328 83966,6917.864,95.437,540.806,538.653,0.0
53574.0,STARLINK-4559,PAYLOAD,2024-02-24 12:16:41,15.08839107,0.0001685,53.2196,154.5781,94.2716,265.8469,3.6861e-05,2.99e-06,0.0,0 STARLINK-4559,1 53574U 22101AZ  24055.51159147  .00000299  00000-0  36861-4 0  9997,2 53574  53.2196 154.5781 0001685  94.2716 265.8469 15.08839107 84107,6917.883,95.438,540.914,538.582,0.0
53574.0,STARLINK-4559,PAYLOAD,2024-02-24 13:52:04,15.088415,0.0001507,53.2189,154.2808,92.0894,268.0271,6.3677e-05,7.26e-06,0.0,0 STARLINK-4559,1 53574U 22101AZ  24055.57782942  .00000726  00000-0  63677-4 0  9998,2 53574  53.2189 154.2808 0001507  92.0894 268.0271 15.08841500 84119,6917.876,95.437,540.783,538.698,0.0
53574.0,STARLINK-4559,PAYLOAD,2024-02-25 12:07:27,15.08846986,0.0001536,53.2177,150.1179,90.6004,269.5165,5.8074e-05,6.37e-06,0.0,0 STARLINK-4559,1 53574U 22101AZ  24056.50518477  .00000637  00000-0  58074-4 0  9998,2 53574  53.2177 150.1179 0001536  90.6004 269.5165 15.08846986 84257,6917.859,95.437,540.787,538.661,0.0
53574.0,STARLINK-4559,PAYLOAD,2024-02-25 13:42:50,15.08849984,0.0001654,53.2182,149.8204,97.7611,262.3569,0.00015214,2.135e-05,0.0,0 STARLINK-4559,1 53574U 22101AZ  24056.57142344  .00002135  00000-0  15214-3 0  9994,2 53574  53.2182 149.8204 0001654  97.7611 262.3569 15.08849984 84261,6917.85,95.437,540.859,538.571,0.0
53574.0,STARLINK-4559,PAYLOAD,2024-02-25 15:18:14,15.08851416,0.0001737,53.2183,149.5219,84.7351,275.384,0.00017603,2.515e-05,0.0,0 STARLINK-4559,1 53574U 22101AZ  24056.63766361  .00002515  00000-0  17603-3 0  9998,2 53574  53.2183 149.5219 0001737  84.7351 275.3840 15.08851416 84274,6917.845,95.437,540.912,538.509,0.0
53574.0,STARLINK-4559,PAYLOAD,2024-02-25 23:15:11,15.088323,0.0002085,53.2166,148.0382,79.7124,280.4103,-3.1899e-05,-7.96e-06,0.0,0 STARLINK-4559,1 53574U 22101AZ  24056.96887837 -.00000796  00000-0 -31899-4 0  9991,2 53574  53.2166 148.0382 0002085  79.7124 280.4103 15.08832300 84325,6917.904,95.438,541.211,538.327,0.0
53574.0,STARLINK-4559,PAYLOAD,2024-02-26 13:33:39,15.08826944,0.0001474,53.2173,145.3617,67.1722,292.9425,4.7619e-05,4.7e-06,0.0,0 STARLINK-4559,1 53574U 22101AZ  24057.56504129  .00000470  00000-0  47619-4 0  9992,2 53574  53.2173 145.3617 0001474  67.1722 292.9425 15.08826944 84412,6917.92,95.438,540.805,538.766,0.0
53574.0,STARLINK-4559,PAYLOAD,2024-02-26 15:09:02,15.08835201,0.000149,53.2166,145.0615,83.7151,276.4011,8.5528e-05,1.073e-05,0.0,0 STARLINK-4559,1 53574U 22101AZ  24057.63127805  .00001073  00000-0  85528-4 0  9993,2 53574  53.2166 145.0615 0001490  83.7151 276.4011 15.08835201 84422,6917.895,95.438,540.791,538.729,0.0
53574.0,STARLINK-4559,PAYLOAD,2024-02-27 11:49:02,15.08850289,0.0001309,53.2151,141.1965,82.0781,278.036,0.00037939,5.757e-05,0.0,0 STARLINK-4559,1 53574U 22101AZ  24058.49239329  .00005757  00000-0  37939-3 0  9998,2 53574  53.2151 141.1965 0001309  82.0781 278.0360 15.08850289 84553,6917.849,95.437,540.619,538.808,0.0
53574.0,STARLINK-4559,PAYLOAD,2024-02-27 22:56:44,15.08849017,0.0001366,53.216,139.1155,76.5554,283.5591,0.00047016,7.204e-05,0.0,0 STARLINK-4559,1 53574U 22101AZ  24058.95607468  .00007204  00000-0  47016-3 0  9998,2 53574  53.2160 139.1155 0001366  76.5554 283.5591 15.08849017 84622,6917.853,95.437,540.663,538.773,0.0
53574.0,STARLINK-4559,PAYLOAD,2024-02-28 11:39:49,15.08844896,0.000152,53.2166,136.7357,86.4784,273.6382,0.00027176,4.04e-05,0.0,0 STARLINK-4559,1 53574U 22101AZ  24059.48599534  .00004040  00000-0  27176-3 0  9991,2 53574  53.2166 136.7357 0001520  86.4784 273.6382 15.08844896 84709,6917.865,95.437,540.782,538.679,0.0
53574.0,STARLINK-4559,PAYLOAD,2024-02-29 11:30:36,15.08845191,0.0001624,53.2196,132.2746,101.2075,258.91,-3.0434e-05,-7.72e-06,0.0,0 STARLINK-4559,1 53574U 22101AZ  24060.47959426 -.00000772  00000-0 -30434-4 0  9994,2 53574  53.2196 132.2746 0001624 101.2075 258.9100 15.08845191 84858,6917.865,95.437,540.853,538.606,0.0
53574.0,STARLINK-4559,PAYLOAD,2024-03-01 11:21:24,15.08839729,0.0001444,53.2176,127.8141,90.8149,269.3008,7.8613e-05,9.63e-06,0.0,0 STARLINK-4559,1 53574U 22101AZ  24061.47319496  .00000963  00000-0  78613-4 0  9993,2 53574  53.2176 127.8141 0001444  90.8149 269.3008 15.08839729 85001,6917.881,95.438,540.745,538.747,0.0
53574.0,STARLINK-4559,PAYLOAD,2024-03-02 11:12:11,15.08838762,0.0001368,53.2175,123.3545,91.1834,268.9315,0.00011209,1.496e-05,0.0,0 STARLINK-4559,1 53574U 22101AZ  24062.46679556  .00001496  00000-0  11209-3 0  9998,2 53574  53.2175 123.3545 0001368  91.1834 268.9315 15.08838762 85157,6917.884,95.438,540.696,538.803,0.0
53574.0,STARLINK-4559,PAYLOAD,2024-03-03 11:02:58,15.08835405,0.0001355,53.2172,118.8948,96.1689,263.9457,4.4126e-05,4.14e-06,0.0,0 STARLINK-4559,1 53574U 22101AZ  24063.46040194  .00000414  00000-0  44126-4 0  9993,2 53574  53.2172 118.8948 0001355  96.1689 263.9457 15.08835405 85309,6917.894,95.438,540.697,538.822,0.0
